[Satellite]
VERSION=1.1
NAME=GSAT0215 (PRN E21)
NICKNAME=GSAT0215 (PRN E21)
TLE1=1 43055U 17079A   20157.39330203 -.00000049  00000-0  00000+0 0  9992
TLE2=2 43055  56.2784 282.1283 0001517 237.6701 122.2930  1.70474408 15434
STATUS=0
